{
    "links": {
        "self": "http://www.neowsapp.com/rest/v1/neo/3774567?api_key=iIulBulltgU6a56xZRHN4H3l9WmuAYTsLGpBGhQ2"
    },
    "id": "3774567",
    "neo_reference_id": "3774567",
    "name": "(2017 JX1)",
    "designation": "2017 JX1",
    "nasa_jpl_url": "http://ssd.jpl.nasa.gov/sbdb.cgi?sstr=3774567",
    "absolute_magnitude_h": 26.0,
    "estimated_diameter": {
        "kilometers": {
            "estimated_diameter_min": 0.0167708462,
            "estimated_diameter_max": 0.0375007522
        },
        "meters": {
            "estimated_diameter_min": 16.7708462163,
            "estimated_diameter_max": 37.5007521798
        },
        "miles": {
            "estimated_diameter_min": 0.0104209175,
            "estimated_diameter_max": 0.0233018799
        },
        "feet": {
            "estimated_diameter_min": 55.0224631002,
            "estimated_diameter_max": 123.0339677816
        }
    },
    "is_potentially_hazardous_asteroid": false,
    "close_approach_data": [
        {
            "close_approach_date": "2017-05-11",
            "close_approach_date_full": "2017-May-11 01:32",
            "epoch_date_close_approach": 1494466320000,
            "relative_velocity": {
                "kilometers_per_second": "7.188785272",
                "kilometers_per_hour": "25879.6269790929",
                "miles_per_hour": "16080.5937748702"
            },
            "miss_distance": {
                "astronomical": "0.0074959721",
                "lunar": "2.9159331469",
                "kilometers": "1121381.459739427",
                "miles": "696794.1283090126"
            },
            "orbiting_body": "Moon"
        },
        {
            "close_approach_date": "2017-05-11",
            "close_approach_date_full": "2017-May-11 02:50",
            "epoch_date_close_approach": 1494471000000,
            "relative_velocity": {
                "kilometers_per_second": "8.012656471",
                "kilometers_per_hour": "28845.5632957628",
                "miles_per_hour": "17923.511260081"
            },
            "miss_distance": {
                "astronomical": "0.0095332218",
                "lunar": "3.7084232802",
                "kilometers": "1426149.675517566",
                "miles": "886168.3161957708"
            },
            "orbiting_body": "Earth"
        }
    ],
    "orbital_data": {
        "orbit_id": "5",
        "orbit_determination_date": "2017-05-13 06:43:37",
        "first_observation_date": "2017-05-04",
        "last_observation_date": "2017-05-11",
        "data_arc_in_days": 7,
        "observations_used": 49,
        "orbit_uncertainty": "7",
        "minimum_orbit_intersection": ".00480562",
        "jupiter_tisserand_invariant": "3.482",
        "epoch_osculation": "2459000.5",
        "eccentricity": ".5331807685740458",
        "semi_major_axis": "2.173776158808407",
        "inclination": "5.392168951228753",
        "ascending_node_longitude": "53.24580373688909",
        "orbital_period": "1170.632719940076",
        "perihelion_distance": "1.014760515747004",
        "perihelion_argument": "184.6275605798656",
        "aphelion_distance": "3.332791801869812",
        "perihelion_time": "2459061.779659623322",
        "mean_anomaly": "341.1549112812044",
        "mean_motion": ".3075260018517407",
        "equinox": "J2000",
        "orbit_class": {
            "orbit_class_type": "APO",
            "orbit_class_description": "Near-Earth asteroid orbits which cross the Earth’s orbit similar to that of 1862 Apollo",
            "orbit_class_range": "a (semi-major axis) > 1.0 AU; q (perihelion) < 1.017 AU"
        }
    },
    "is_sentry_object": false
}